[
    {
        "Altitude(m)": 707240.7414327817,
        "Argument of Periapsis(deg)": 0.0022780242373254137,
        "Eccentricity": 0.0,
        "Inclination(deg)": 45.0,
        "Latitude(deg)": 44.85386203461003,
        "Longitude(deg)": 111.5846570575551,
        "Mean Anomaly(deg)": 84.12484332949619,
        "RAAN(deg)": 129.99784961170838,
        "Satellite Name": "Constellation 1 577",
        "Satellite Number": 577,
        "Semi-Major Axis(m)": 7083131.272910544,
        "Time(s)": 38
    },
    {
        "Altitude(m)": 707242.1438386686,
        "Argument of Periapsis(deg)": 0.002337972243570819,
        "Eccentricity": 0.0,
        "Inclination(deg)": 45.0,
        "Latitude(deg)": 44.86002834393533,
        "Longitude(deg)": 111.6655584936943,
        "Mean Anomaly(deg)": 84.18554446974609,
        "RAAN(deg)": 129.9977930225428,
        "Satellite Name": "Constellation 1 577",
        "Satellite Number": 577,
        "Semi-Major Axis(m)": 7083131.272910544,
        "Time(s)": 39
    },
    {
        "Altitude(m)": 707243.5319960772,
        "Argument of Periapsis(deg)": 0.0023979202498162246,
        "Eccentricity": 0.0,
        "Inclination(deg)": 45.0,
        "Latitude(deg)": 44.86613138157592,
        "Longitude(deg)": 111.74647797331261,
        "Mean Anomaly(deg)": 84.24624560999598,
        "RAAN(deg)": 129.9977364333772,
        "Satellite Name": "Constellation 1 577",
        "Satellite Number": 577,
        "Semi-Major Axis(m)": 7083131.272910544,
        "Time(s)": 40
    },
    {
        "Altitude(m)": 707244.9058969124,
        "Argument of Periapsis(deg)": 0.00245786825606163,
        "Eccentricity": 0.0,
        "Inclination(deg)": 45.0,
        "Latitude(deg)": 44.872171120932705,
        "Longitude(deg)": 111.82741531786314,
        "Mean Anomaly(deg)": 84.30694675024586,
        "RAAN(deg)": 129.99767984421166,
        "Satellite Name": "Constellation 1 577",
        "Satellite Number": 577,
        "Semi-Major Axis(m)": 7083131.272910544,
        "Time(s)": 41
    },
    {
        "Altitude(m)": 707246.2655331718,
        "Argument of Periapsis(deg)": 0.002517816262307036,
        "Eccentricity": 0.0,
        "Inclination(deg)": 45.0,
        "Latitude(deg)": 44.87814753566856,
        "Longitude(deg)": 111.90837034848897,
        "Mean Anomaly(deg)": 84.36764789049577,
        "RAAN(deg)": 129.99762325504608,
        "Satellite Name": "Constellation 1 577",
        "Satellite Number": 577,
        "Semi-Major Axis(m)": 7083131.272910544,
        "Time(s)": 42
    },
    {
        "Altitude(m)": 707247.6108969251,
        "Argument of Periapsis(deg)": 0.0025777642685524413,
        "Eccentricity": 0.0,
        "Inclination(deg)": 45.0,
        "Latitude(deg)": 44.884060599708945,
        "Longitude(deg)": 111.9893428860257,
        "Mean Anomaly(deg)": 84.42834903074568,
        "RAAN(deg)": 129.99756666588053,
        "Satellite Name": "Constellation 1 577",
        "Satellite Number": 577,
        "Semi-Major Axis(m)": 7083131.272910544,
        "Time(s)": 43
    },
    {
        "Altitude(m)": 707248.9419803417,
        "Argument of Periapsis(deg)": 0.002637712274797847,
        "Eccentricity": 0.0,
        "Inclination(deg)": 45.0,
        "Latitude(deg)": 44.88991028724252,
        "Longitude(deg)": 112.07033258290721,
        "Mean Anomaly(deg)": 84.48905017099554,
        "RAAN(deg)": 129.99751007671495,
        "Satellite Name": "Constellation 1 577",
        "Satellite Number": 577,
        "Semi-Major Axis(m)": 7083131.272910544,
        "Time(s)": 44
    },
    {
        "Altitude(m)": 707250.2587756595,
        "Argument of Periapsis(deg)": 0.0026976602810432526,
        "Eccentricity": 0.0,
        "Inclination(deg)": 45.0,
        "Latitude(deg)": 44.89569657272126,
        "Longitude(deg)": 112.15133959555817,
        "Mean Anomaly(deg)": 84.54975131124546,
        "RAAN(deg)": 129.99745348754936,
        "Satellite Name": "Constellation 1 577",
        "Satellite Number": 577,
        "Semi-Major Axis(m)": 7083131.272910544,
        "Time(s)": 45
    },
    {
        "Altitude(m)": 707251.5612752081,
        "Argument of Periapsis(deg)": 0.0027576082872886585,
        "Eccentricity": 0.0,
        "Inclination(deg)": 45.0,
        "Latitude(deg)": 44.90141943086156,
        "Longitude(deg)": 112.23236357581222,
        "Mean Anomaly(deg)": 84.61045245149538,
        "RAAN(deg)": 129.9973968983838,
        "Satellite Name": "Constellation 1 577",
        "Satellite Number": 577,
        "Semi-Major Axis(m)": 7083131.272910544,
        "Time(s)": 46
    },
    {
        "Altitude(m)": 707252.8494713994,
        "Argument of Periapsis(deg)": 0.0028175562935340644,
        "Eccentricity": 0.0,
        "Inclination(deg)": 45.0,
        "Latitude(deg)": 44.907078836644374,
        "Longitude(deg)": 112.31340434330484,
        "Mean Anomaly(deg)": 84.67115359174525,
        "RAAN(deg)": 129.99734030921823,
        "Satellite Name": "Constellation 1 577",
        "Satellite Number": 577,
        "Semi-Major Axis(m)": 7083131.272910544,
        "Time(s)": 47
    },
    {
        "Altitude(m)": 707254.1233567303,
        "Argument of Periapsis(deg)": 0.00287750429977947,
        "Eccentricity": 0.0,
        "Inclination(deg)": 45.0,
        "Latitude(deg)": 44.91267476531582,
        "Longitude(deg)": 112.3944617173788,
        "Mean Anomaly(deg)": 84.7318547319952,
        "RAAN(deg)": 129.99728372005268,
        "Satellite Name": "Constellation 1 577",
        "Satellite Number": 577,
        "Semi-Major Axis(m)": 7083131.272910544,
        "Time(s)": 48
    },
    {
        "Altitude(m)": 707255.382923781,
        "Argument of Periapsis(deg)": 0.002937452306024875,
        "Eccentricity": 0.0,
        "Inclination(deg)": 45.0,
        "Latitude(deg)": 44.91820719238776,
        "Longitude(deg)": 112.4755355170869,
        "Mean Anomaly(deg)": 84.79255587224506,
        "RAAN(deg)": 129.99722713088713,
        "Satellite Name": "Constellation 1 577",
        "Satellite Number": 577,
        "Semi-Major Axis(m)": 7083131.272910544,
        "Time(s)": 49
    },
    {
        "Altitude(m)": 707256.6281652128,
        "Argument of Periapsis(deg)": 0.0029974003122702807,
        "Eccentricity": 0.0,
        "Inclination(deg)": 45.0,
        "Latitude(deg)": 44.92367609363818,
        "Longitude(deg)": 112.556625561195,
        "Mean Anomaly(deg)": 84.85325701249496,
        "RAAN(deg)": 129.99717054172152,
        "Satellite Name": "Constellation 1 577",
        "Satellite Number": 577,
        "Semi-Major Axis(m)": 7083131.272910544,
        "Time(s)": 50
    },
    {
        "Altitude(m)": 707257.8590737791,
        "Argument of Periapsis(deg)": 0.0030573483185156866,
        "Eccentricity": 0.0,
        "Inclination(deg)": 45.0,
        "Latitude(deg)": 44.929081445111805,
        "Longitude(deg)": 112.63773166818522,
        "Mean Anomaly(deg)": 84.91395815274485,
        "RAAN(deg)": 129.99711395255596,
        "Satellite Name": "Constellation 1 577",
        "Satellite Number": 577,
        "Semi-Major Axis(m)": 7083131.272910544,
        "Time(s)": 51
    },
    {
        "Altitude(m)": 707259.0756423066,
        "Argument of Periapsis(deg)": 0.003117296324761092,
        "Eccentricity": 0.0,
        "Inclination(deg)": 45.0,
        "Latitude(deg)": 44.93442322312061,
        "Longitude(deg)": 112.71885348816123,
        "Mean Anomaly(deg)": 84.97465929299473,
        "RAAN(deg)": 129.99705736339038,
        "Satellite Name": "Constellation 1 577",
        "Satellite Number": 577,
        "Semi-Major Axis(m)": 7083131.272910544,
        "Time(s)": 52
    },
    {
        "Altitude(m)": 707260.2778637164,
        "Argument of Periapsis(deg)": 0.0031772443310064975,
        "Eccentricity": 0.0,
        "Inclination(deg)": 45.0,
        "Latitude(deg)": 44.939701404243955,
        "Longitude(deg)": 112.7999911752408,
        "Mean Anomaly(deg)": 85.03536043324463,
        "RAAN(deg)": 129.99700077422483,
        "Satellite Name": "Constellation 1 577",
        "Satellite Number": 577,
        "Semi-Major Axis(m)": 7083131.272910544,
        "Time(s)": 53
    },
    {
        "Altitude(m)": 707261.4657310048,
        "Argument of Periapsis(deg)": 0.0032371923372519038,
        "Eccentricity": 0.0,
        "Inclination(deg)": 45.0,
        "Latitude(deg)": 44.94491596532967,
        "Longitude(deg)": 112.88114437897462,
        "Mean Anomaly(deg)": 85.09606157349454,
        "RAAN(deg)": 129.99694418505928,
        "Satellite Name": "Constellation 1 577",
        "Satellite Number": 577,
        "Semi-Major Axis(m)": 7083131.272910544,
        "Time(s)": 54
    },
    {
        "Altitude(m)": 707262.6392372607,
        "Argument of Periapsis(deg)": 0.0032971403434973088,
        "Eccentricity": 0.0,
        "Inclination(deg)": 45.0,
        "Latitude(deg)": 44.950066883494124,
        "Longitude(deg)": 112.96231291673892,
        "Mean Anomaly(deg)": 85.15676271374447,
        "RAAN(deg)": 129.99688759589367,
        "Satellite Name": "Constellation 1 577",
        "Satellite Number": 577,
        "Semi-Major Axis(m)": 7083131.272910544,
        "Time(s)": 55
    },
    {
        "Altitude(m)": 707263.7983756501,
        "Argument of Periapsis(deg)": 0.0033570883497427146,
        "Eccentricity": 0.0,
        "Inclination(deg)": 45.0,
        "Latitude(deg)": 44.955154136122744,
        "Longitude(deg)": 113.04349660564068,
        "Mean Anomaly(deg)": 85.21746385399436,
        "RAAN(deg)": 129.99683100672812,
        "Satellite Name": "Constellation 1 577",
        "Satellite Number": 577,
        "Semi-Major Axis(m)": 7083131.272910544,
        "Time(s)": 56
    }
]